GLOBALSTAR M023         
1 25621U 99004A   25125.12033119 -.00000155  00000+0 -28196-3 0  9994
2 25621  52.0097 184.5821 0009372  31.6637 344.8614 12.62504066210383
GLOBALSTAR M040         
1 25622U 99004B   25124.95469248 -.00000055  00000+0  27342-3 0  9991
2 25622  51.9902 189.1771 0000578 281.0392 250.9799 12.62009626209796
GLOBALSTAR M036         
1 25623U 99004C   25125.57590416 -.00000001  00000+0  11913-2 0  9990
2 25623  51.9995 352.6369 0010826 335.1855  39.8721 11.86597361173906
GLOBALSTAR M038         
1 25624U 99004D   25125.50970265 -.00000087  00000+0  64052-4 0  9996
2 25624  51.9960 194.4791 0001469 320.6939  52.8069 12.32526295197079
GLOBALSTAR M022         
1 25649U 99012A   25125.75862102 -.00000040  00000+0  56246-3 0  9993
2 25649  52.0060  46.2389 0002999  84.5000 309.1961 12.02499841171355
GLOBALSTAR M041         
1 25650U 99012B   25125.45248164 -.00000036  00000+0  63166-3 0  9992
2 25650  52.0025 287.2263 0001397 203.0419 157.0355 11.96673838173406
GLOBALSTAR M046         
1 25651U 99012C   25125.39303903 -.00000043  00000+0  50604-3 0  9990
2 25651  52.0081 358.9311 0002222 148.4779  22.3756 12.09408685178830
GLOBALSTAR M037         
1 25652U 99012D   25125.57725546 -.00000086  00000+0  98439-4 0  9998
2 25652  52.0015 313.8263 0002882  95.2667 304.4794 12.62444180205949
